{
  "type": "FeatureCollection",
  "features": [
    {
      "type": "Feature",
      "properties": {
        "norad_id": 31087,
        "name": "FENGYUN 1C DEB",
        "group": "fengyun-1c-debris",
        "lat": -2.3963907524904977,
        "lon": 18.303602332508614,
        "alt_km": 717.5228939426852,
        "timestamp": "2025-12-23T18:59:32.247619+00:00",
        "meta_object_name": "FENGYUN 1C DEB",
        "meta_object_id": "1999-025BGH",
        "meta_epoch": "2025-12-22T12:29:21.539616",
        "meta_mean_motion": 14.60394241,
        "meta_eccentricity": 0.01716403,
        "meta_inclination": 98.1012,
        "meta_ra_of_asc_node": 16.7188,
        "meta_arg_of_pericenter": 260.0916,
        "meta_mean_anomaly": 257.6721,
        "meta_ephemeris_type": 0,
        "meta_classification_type": "U",
        "meta_norad_cat_id": 31087,
        "meta_element_set_no": 999,
        "meta_rev_at_epoch": 98912,
        "meta_bstar": 0.00080101067,
        "meta_mean_motion_dot": 4.718e-05,
        "meta_mean_motion_ddot": 0,
        "tle_line1": "1 31087U 99025BGH 25356.52038819  .00004718  00000+0  80101-3 0  9993",
        "tle_line2": "2 31087  98.1012  16.7188 0171640 260.0916 257.6721 14.60394241989129"
      },
      "geometry": {
        "type": "Point",
        "coordinates": [
          18.303602332508614,
          -2.3963907524904977
        ]
      }
    },
    {
      "type": "Feature",
      "properties": {
        "norad_id": 31088,
        "name": "FENGYUN 1C DEB",
        "group": "fengyun-1c-debris",
        "lat": 79.31843122708916,
        "lon": -2.7256198561670772,
        "alt_km": 777.0111178817133,
        "timestamp": "2025-12-23T18:59:32.247634+00:00",
        "meta_object_name": "FENGYUN 1C DEB",
        "meta_object_id": "1999-025BGJ",
        "meta_epoch": "2025-12-20T03:21:12.353184",
        "meta_mean_motion": 14.28750906,
        "meta_eccentricity": 0.00280606,
        "meta_inclination": 99.4114,
        "meta_ra_of_asc_node": 54.9006,
        "meta_arg_of_pericenter": 39.8245,
        "meta_mean_anomaly": 353.0532,
        "meta_ephemeris_type": 0,
        "meta_classification_type": "U",
        "meta_norad_cat_id": 31088,
        "meta_element_set_no": 999,
        "meta_rev_at_epoch": 96655,
        "meta_bstar": 0.0010684621,
        "meta_mean_motion_dot": 2.651e-05,
        "meta_mean_motion_ddot": 0,
        "tle_line1": "1 31088U 99025BGJ 25354.13972631  .00002651  00000+0  10685-2 0  9991",
        "tle_line2": "2 31088  99.4114  54.9006 0028060  39.8245 353.0532 14.28750906966555"
      },
      "geometry": {
        "type": "Point",
        "coordinates": [
          -2.7256198561670772,
          79.31843122708916
        ]
      }
    },
    {
      "type": "Feature",
      "properties": {
        "norad_id": 31089,
        "name": "FENGYUN 1C DEB",
        "group": "fengyun-1c-debris",
        "lat": 13.271792648124219,
        "lon": 137.27851795747958,
        "alt_km": 1082.9400707252726,
        "timestamp": "2025-12-23T18:59:32.247643+00:00",
        "meta_object_name": "FENGYUN 1C DEB",
        "meta_object_id": "1999-025BGK",
        "meta_epoch": "2025-12-23T04:12:56.469312",
        "meta_mean_motion": 13.88345862,
        "meta_eccentricity": 0.02063025,
        "meta_inclination": 98.9493,
        "meta_ra_of_asc_node": 138.8175,
        "meta_arg_of_pericenter": 183.341,
        "meta_mean_anomaly": 355.1152,
        "meta_ephemeris_type": 0,
        "meta_classification_type": "U",
        "meta_norad_cat_id": 31089,
        "meta_element_set_no": 999,
        "meta_rev_at_epoch": 68204,
        "meta_bstar": 0.00070466509,
        "meta_mean_motion_dot": 9.58e-06,
        "meta_mean_motion_ddot": 0,
        "tle_line1": "1 31089U 99025BGK 25357.17565358  .00000958  00000+0  70467-3 0  9996",
        "tle_line2": "2 31089  98.9493 138.8175 0206302 183.3410 355.1152 13.88345862682041"
      },
      "geometry": {
        "type": "Point",
        "coordinates": [
          137.27851795747958,
          13.271792648124219
        ]
      }
    },
    {
      "type": "Feature",
      "properties": {
        "norad_id": 31090,
        "name": "FENGYUN 1C DEB",
        "group": "fengyun-1c-debris",
        "lat": 61.758743018264326,
        "lon": -58.664164445215306,
        "alt_km": 422.06453297987355,
        "timestamp": "2025-12-23T18:59:32.247652+00:00",
        "meta_object_name": "FENGYUN 1C DEB",
        "meta_object_id": "1999-025BGL",
        "meta_epoch": "2025-12-21T13:16:32.539296",
        "meta_mean_motion": 15.34304432,
        "meta_eccentricity": 0.0054242,
        "meta_inclination": 98.984,
        "meta_ra_of_asc_node": 101.4841,
        "meta_arg_of_pericenter": 102.0738,
        "meta_mean_anomaly": 258.6586,
        "meta_ephemeris_type": 0,
        "meta_classification_type": "U",
        "meta_norad_cat_id": 31090,
        "meta_element_set_no": 999,
        "meta_rev_at_epoch": 973,
        "meta_bstar": 0.0014098,
        "meta_mean_motion_dot": 0.00049266,
        "meta_mean_motion_ddot": 0,
        "tle_line1": "1 31090U 99025BGL 25355.55315439  .00049266  00000+0  14098-2 0  9993",
        "tle_line2": "2 31090  98.9840 101.4841 0054242 102.0738 258.6586 15.34304432  9738"
      },
      "geometry": {
        "type": "Point",
        "coordinates": [
          -58.664164445215306,
          61.758743018264326
        ]
      }
    },
    {
      "type": "Feature",
      "properties": {
        "norad_id": 31091,
        "name": "FENGYUN 1C DEB",
        "group": "fengyun-1c-debris",
        "lat": -15.844533460116722,
        "lon": -23.23594242733167,
        "alt_km": 901.1185555631027,
        "timestamp": "2025-12-23T18:59:32.247661+00:00",
        "meta_object_name": "FENGYUN 1C DEB",
        "meta_object_id": "1999-025BGM",
        "meta_epoch": "2025-12-22T16:28:13.100736",
        "meta_mean_motion": 13.54158753,
        "meta_eccentricity": 0.02902586,
        "meta_inclination": 99.2259,
        "meta_ra_of_asc_node": 333.0878,
        "meta_arg_of_pericenter": 303.7803,
        "meta_mean_anomaly": 53.5998,
        "meta_ephemeris_type": 0,
        "meta_classification_type": "U",
        "meta_norad_cat_id": 31091,
        "meta_element_set_no": 999,
        "meta_rev_at_epoch": 61774,
        "meta_bstar": 0.00060623551,
        "meta_mean_motion_dot": 4.96e-06,
        "meta_mean_motion_ddot": 0,
        "tle_line1": "1 31091U 99025BGM 25356.68626274  .00000496  00000+0  60624-3 0  9990",
        "tle_line2": "2 31091  99.2259 333.0878 0290258 303.7803  53.5998 13.54158753617740"
      },
      "geometry": {
        "type": "Point",
        "coordinates": [
          -23.23594242733167,
          -15.844533460116722
        ]
      }
    },
    {
      "type": "Feature",
      "properties": {
        "norad_id": 31092,
        "name": "FENGYUN 1C DEB",
        "group": "fengyun-1c-debris",
        "lat": 38.17707102624404,
        "lon": 105.59283182820752,
        "alt_km": 993.8518512196306,
        "timestamp": "2025-12-23T18:59:32.247672+00:00",
        "meta_object_name": "FENGYUN 1C DEB",
        "meta_object_id": "1999-025BGN",
        "meta_epoch": "2025-12-21T18:39:08.339040",
        "meta_mean_motion": 13.46549924,
        "meta_eccentricity": 0.03272724,
        "meta_inclination": 99.7204,
        "meta_ra_of_asc_node": 111.3813,
        "meta_arg_of_pericenter": 114.5013,
        "meta_mean_anomaly": 249.0613,
        "meta_ephemeris_type": 0,
        "meta_classification_type": "U",
        "meta_norad_cat_id": 31092,
        "meta_element_set_no": 999,
        "meta_rev_at_epoch": 92003,
        "meta_bstar": 0.0010558977,
        "meta_mean_motion_dot": 8.4e-06,
        "meta_mean_motion_ddot": 0,
        "tle_line1": "1 31092U 99025BGN 25355.77717985  .00000840  00000+0  10559-2 0  9994",
        "tle_line2": "2 31092  99.7204 111.3813 0327272 114.5013 249.0613 13.46549924920030"
      },
      "geometry": {
        "type": "Point",
        "coordinates": [
          105.59283182820752,
          38.17707102624404
        ]
      }
    },
    {
      "type": "Feature",
      "properties": {
        "norad_id": 31093,
        "name": "FENGYUN 1C DEB",
        "group": "fengyun-1c-debris",
        "lat": 68.1451991098031,
        "lon": 37.95558240996394,
        "alt_km": 933.3354238447282,
        "timestamp": "2025-12-23T18:59:32.247681+00:00",
        "meta_object_name": "FENGYUN 1C DEB",
        "meta_object_id": "1999-025BGP",
        "meta_epoch": "2025-12-20T19:08:05.890560",
        "meta_mean_motion": 13.80639482,
        "meta_eccentricity": 0.02083586,
        "meta_inclination": 98.5945,
        "meta_ra_of_asc_node": 193.0786,
        "meta_arg_of_pericenter": 201.2976,
        "meta_mean_anomaly": 157.9411,
        "meta_ephemeris_type": 0,
        "meta_classification_type": "U",
        "meta_norad_cat_id": 31093,
        "meta_element_set_no": 999,
        "meta_rev_at_epoch": 94618,
        "meta_bstar": 0.00028681115,
        "meta_mean_motion_dot": 3.16e-06,
        "meta_mean_motion_ddot": 0,
        "tle_line1": "1 31093U 99025BGP 25354.79729040  .00000316  00000+0  28681-3 0  9995",
        "tle_line2": "2 31093  98.5945 193.0786 0208358 201.2976 157.9411 13.80639482946185"
      },
      "geometry": {
        "type": "Point",
        "coordinates": [
          37.95558240996394,
          68.1451991098031
        ]
      }
    }
  ]
}